{
  "type": "FeatureCollection",
  "features": [
    {
      "type": "Feature",
      "properties": {
        "norad_id": 66617,
        "name": "STARLINK-35940",
        "group": "last-30-days",
        "lat": -49.68160844664473,
        "lon": 107.3305869540771,
        "alt_km": 332.64552045366054,
        "timestamp": "2025-12-04T23:34:04.492093+00:00",
        "meta_object_name": "STARLINK-35940",
        "meta_object_id": "2025-271A",
        "meta_epoch": "2025-12-04T07:20:17.054880",
        "meta_mean_motion": 15.8184412,
        "meta_eccentricity": 6.78e-05,
        "meta_inclination": 53.1574,
        "meta_ra_of_asc_node": 228.6482,
        "meta_arg_of_pericenter": 40.0862,
        "meta_mean_anomaly": 320.0211,
        "meta_ephemeris_type": 0,
        "meta_classification_type": "U",
        "meta_norad_cat_id": 66617,
        "meta_element_set_no": 999,
        "meta_rev_at_epoch": 288,
        "meta_bstar": -0.0029443,
        "meta_mean_motion_dot": -0.00570206,
        "meta_mean_motion_ddot": 0,
        "tle_line1": "1 66617U 25271A   25338.30575295 -.00570206  00000+0 -29443-2 0  9995",
        "tle_line2": "2 66617  53.1574 228.6482 0000678  40.0862 320.0211 15.81844120  2887"
      },
      "geometry": {
        "type": "Point",
        "coordinates": [
          107.3305869540771,
          -49.68160844664473
        ]
      }
    },
    {
      "type": "Feature",
      "properties": {
        "norad_id": 66618,
        "name": "STARLINK-35970",
        "group": "last-30-days",
        "lat": -32.847140459248116,
        "lon": -163.83562087542492,
        "alt_km": 342.26642669624835,
        "timestamp": "2025-12-04T23:34:04.492106+00:00",
        "meta_object_name": "STARLINK-35970",
        "meta_object_id": "2025-271B",
        "meta_epoch": "2025-12-04T16:08:47.378112",
        "meta_mean_motion": 15.78027581,
        "meta_eccentricity": 2.4e-05,
        "meta_inclination": 53.1563,
        "meta_ra_of_asc_node": 226.6615,
        "meta_arg_of_pericenter": 190.966,
        "meta_mean_anomaly": 169.1356,
        "meta_ephemeris_type": 0,
        "meta_classification_type": "U",
        "meta_norad_cat_id": 66618,
        "meta_element_set_no": 999,
        "meta_rev_at_epoch": 294,
        "meta_bstar": -0.0069931,
        "meta_mean_motion_dot": -0.0108913,
        "meta_mean_motion_ddot": 0,
        "tle_line1": "1 66618U 25271B   25338.67277058 -.01089130  00000+0 -69931-2 0  9990",
        "tle_line2": "2 66618  53.1563 226.6615 0000240 190.9660 169.1356 15.78027581  2947"
      },
      "geometry": {
        "type": "Point",
        "coordinates": [
          -163.83562087542492,
          -32.847140459248116
        ]
      }
    },
    {
      "type": "Feature",
      "properties": {
        "norad_id": 66619,
        "name": "STARLINK-35951",
        "group": "last-30-days",
        "lat": -52.04354572618002,
        "lon": 119.23377616635172,
        "alt_km": 330.06051904828473,
        "timestamp": "2025-12-04T23:34:04.492116+00:00",
        "meta_object_name": "STARLINK-35951",
        "meta_object_id": "2025-271C",
        "meta_epoch": "2025-12-04T16:24:17.728128",
        "meta_mean_motion": 15.81164298,
        "meta_eccentricity": 0.0003985,
        "meta_inclination": 53.1566,
        "meta_ra_of_asc_node": 226.7354,
        "meta_arg_of_pericenter": 184.8353,
        "meta_mean_anomaly": 175.2632,
        "meta_ephemeris_type": 0,
        "meta_classification_type": "U",
        "meta_norad_cat_id": 66619,
        "meta_element_set_no": 999,
        "meta_rev_at_epoch": 294,
        "meta_bstar": 0.0031545,
        "meta_mean_motion_dot": 0.00682668,
        "meta_mean_motion_ddot": 0,
        "tle_line1": "1 66619U 25271C   25338.68353852  .00682668  00000+0  31545-2 0  9991",
        "tle_line2": "2 66619  53.1566 226.7354 0003985 184.8353 175.2632 15.81164298  2948"
      },
      "geometry": {
        "type": "Point",
        "coordinates": [
          119.23377616635172,
          -52.04354572618002
        ]
      }
    },
    {
      "type": "Feature",
      "properties": {
        "norad_id": 66620,
        "name": "STARLINK-35936",
        "group": "last-30-days",
        "lat": -49.94478086048145,
        "lon": 108.36117521390085,
        "alt_km": 332.0361703920653,
        "timestamp": "2025-12-04T23:34:04.492127+00:00",
        "meta_object_name": "STARLINK-35936",
        "meta_object_id": "2025-271D",
        "meta_epoch": "2025-12-04T16:25:56.974080",
        "meta_mean_motion": 15.80825701,
        "meta_eccentricity": 0.0002899,
        "meta_inclination": 53.157,
        "meta_ra_of_asc_node": 226.7449,
        "meta_arg_of_pericenter": 194.5504,
        "meta_mean_anomaly": 165.5436,
        "meta_ephemeris_type": 0,
        "meta_classification_type": "U",
        "meta_norad_cat_id": 66620,
        "meta_element_set_no": 999,
        "meta_rev_at_epoch": 294,
        "meta_bstar": -0.00072034,
        "meta_mean_motion_dot": -0.00140336,
        "meta_mean_motion_ddot": 0,
        "tle_line1": "1 66620U 25271D   25338.68468720 -.00140336  00000+0 -72034-3 0  9996",
        "tle_line2": "2 66620  53.1570 226.7449 0002899 194.5504 165.5436 15.80825701  2945"
      },
      "geometry": {
        "type": "Point",
        "coordinates": [
          108.36117521390085,
          -49.94478086048145
        ]
      }
    },
    {
      "type": "Feature",
      "properties": {
        "norad_id": 66621,
        "name": "STARLINK-35847",
        "group": "last-30-days",
        "lat": -26.31096440946919,
        "lon": -156.66412585122427,
        "alt_km": 337.56662943083757,
        "timestamp": "2025-12-04T23:34:04.492137+00:00",
        "meta_object_name": "STARLINK-35847",
        "meta_object_id": "2025-271E",
        "meta_epoch": "2025-12-04T05:29:14.400096",
        "meta_mean_motion": 15.80119551,
        "meta_eccentricity": 8.3e-05,
        "meta_inclination": 53.1563,
        "meta_ra_of_asc_node": 228.8686,
        "meta_arg_of_pericenter": 162.0892,
        "meta_mean_anomaly": 198.016,
        "meta_ephemeris_type": 0,
        "meta_classification_type": "U",
        "meta_norad_cat_id": 66621,
        "meta_element_set_no": 999,
        "meta_rev_at_epoch": 287,
        "meta_bstar": -0.0041389,
        "meta_mean_motion_dot": -0.00726477,
        "meta_mean_motion_ddot": 0,
        "tle_line1": "1 66621U 25271E   25338.22863889 -.00726477  00000+0 -41389-2 0  9996",
        "tle_line2": "2 66621  53.1563 228.8686 0000830 162.0892 198.0160 15.80119551  2873"
      },
      "geometry": {
        "type": "Point",
        "coordinates": [
          -156.66412585122427,
          -26.31096440946919
        ]
      }
    },
    {
      "type": "Feature",
      "properties": {
        "norad_id": 66622,
        "name": "STARLINK-35950",
        "group": "last-30-days",
        "lat": -52.687422417552696,
        "lon": 124.91236672017756,
        "alt_km": 331.9804869727086,
        "timestamp": "2025-12-04T23:34:04.492167+00:00",
        "meta_object_name": "STARLINK-35950",
        "meta_object_id": "2025-271F",
        "meta_epoch": "2025-12-04T07:17:24.781920",
        "meta_mean_motion": 15.81843167,
        "meta_eccentricity": 3.92e-05,
        "meta_inclination": 53.157,
        "meta_ra_of_asc_node": 228.6341,
        "meta_arg_of_pericenter": 311.7184,
        "meta_mean_anomaly": 48.3805,
        "meta_ephemeris_type": 0,
        "meta_classification_type": "U",
        "meta_norad_cat_id": 66622,
        "meta_element_set_no": 999,
        "meta_rev_at_epoch": 288,
        "meta_bstar": -0.0027019,
        "meta_mean_motion_dot": -0.00525909,
        "meta_mean_motion_ddot": 0,
        "tle_line1": "1 66622U 25271F   25338.30375905 -.00525909  00000+0 -27019-2 0  9994",
        "tle_line2": "2 66622  53.1570 228.6341 0000392 311.7184  48.3805 15.81843167  2880"
      },
      "geometry": {
        "type": "Point",
        "coordinates": [
          124.91236672017756,
          -52.687422417552696
        ]
      }
    },
    {
      "type": "Feature",
      "properties": {
        "norad_id": 66623,
        "name": "STARLINK-35920",
        "group": "last-30-days",
        "lat": -53.05154713152606,
        "lon": 130.72259974745396,
        "alt_km": 332.27119402555945,
        "timestamp": "2025-12-04T23:34:04.492185+00:00",
        "meta_object_name": "STARLINK-35920",
        "meta_object_id": "2025-271G",
        "meta_epoch": "2025-12-04T10:18:25.884864",
        "meta_mean_motion": 15.81474448,
        "meta_eccentricity": 0.000142,
        "meta_inclination": 53.1567,
        "meta_ra_of_asc_node": 227.9949,
        "meta_arg_of_pericenter": 2.2541,
        "meta_mean_anomaly": 357.8488,
        "meta_ephemeris_type": 0,
        "meta_classification_type": "U",
        "meta_norad_cat_id": 66623,
        "meta_element_set_no": 999,
        "meta_rev_at_epoch": 290,
        "meta_bstar": -0.001618,
        "meta_mean_motion_dot": -0.00317341,
        "meta_mean_motion_ddot": 0,
        "tle_line1": "1 66623U 25271G   25338.42946626 -.00317341  00000+0 -16180-2 0  9998",
        "tle_line2": "2 66623  53.1567 227.9949 0001420   2.2541 357.8488 15.81474448  2905"
      },
      "geometry": {
        "type": "Point",
        "coordinates": [
          130.72259974745396,
          -53.05154713152606
        ]
      }
    }
  ]
}